H1 CPF 01  gfz 2022 04 25 00  6151 terrasarx 
H2 0702601  6201 31698    2022 04 25 00 59 42 2022 04 30 00 00 42   120 1 1  0 0 0
H9
10 0 59695  33102.000000  0   -2552843.730   1589759.271  -6204330.216
10 0 59695  33222.000000  0   -3030925.171   2244427.209  -5771618.040
10 0 59695  33342.000000  0   -3445230.385   2867959.329  -5238043.685
10 0 59695  33462.000000  0   -3789162.794   3448313.575  -4612843.538
10 0 59695  33582.000000  0   -4057535.980   3974069.792  -3906869.477
10 0 59695  33702.000000  0   -4246656.323   4434657.180  -3132409.226
10 0 59695  33822.000000  0   -4354377.539   4820571.469  -2302980.125
10 0 59695  33942.000000  0   -4380126.436   5123576.003  -1433097.070
10 0 59695  34062.000000  0   -4324898.091   5336882.889   -538018.939
10 0 59695  34182.000000  0   -4191218.494   5455308.458    366524.365
10 0 59695  34302.000000  0   -3983075.407   5475396.606   1264614.787
10 0 59695  34422.000000  0   -3705820.076   5395509.868   2140435.902
10 0 59695  34542.000000  0   -3366040.261   5215881.553   2978561.965
10 0 59695  34662.000000  0   -2971407.565   4938629.446   3764237.082
10 0 59695  34782.000000  0   -2530505.946   4567732.392   4483639.561
10 0 59695  34902.000000  0   -2052644.512   4108969.650   5124127.855
10 0 59695  35022.000000  0   -1547659.702   3569824.369   5674462.690
10 0 59695  35142.000000  0   -1025710.773   2959353.946   6125001.157
10 0 59695  35262.000000  0    -497074.361   2288030.651   6467859.833
10 0 59695  35382.000000  0      28057.215   1567557.344   6697045.789
10 0 59695  35502.000000  0     539771.873    810660.624   6808556.393
10 0 59695  35622.000000  0    1028624.189     30864.798   6800443.887
10 0 59695  35742.000000  0    1485808.556   -757748.585   6672847.675
10 0 59695  35862.000000  0    1903317.339  -1540794.634   6427992.773
10 0 59695  35982.000000  0    2274081.376  -2303846.602   6070153.837
10 0 59695  36102.000000  0    2592091.193  -3032702.575   5605585.967
10 0 59695  36222.000000  0    2852496.502  -3713652.074   5042420.753
10 0 59695  36342.000000  0    3051681.643  -4333737.474   4390529.738
10 0 59695  36462.000000  0    3187317.070  -4881006.702   3661356.562
10 0 59695  36582.000000  0    3258384.189  -5344750.416   2867718.035
10 0 59695  36702.000000  0    3265173.444  -5715719.045   2023578.790
10 0 59695  36822.000000  0    3209254.288  -5986313.818   1143802.091
10 0 59695  36942.000000  0    3093418.956  -6150745.991    243882.746
10 0 59695  37062.000000  0    2921601.834  -6205162.437   -660332.259
10 0 59695  37182.000000  0    2698774.303  -6147733.376  -1552933.196
10 0 59695  37302.000000  0    2430817.914  -5978696.512  -2418235.991
10 0 59695  37422.000000  0    2124381.290  -5700361.553  -3241064.597
10 0 59695  37542.000000  0    1786721.518  -5317072.466  -4007022.734
10 0 59695  37662.000000  0    1425536.808  -4835127.766  -4702745.354
10 0 59695  37782.000000  0    1048795.749  -4262665.093  -5316127.149
10 0 59695  37902.000000  0     664565.717  -3609513.508  -5836525.928
10 0 59695  38022.000000  0     280844.038  -2887015.803  -6254937.518
10 0 59695  38142.000000  0     -94604.379  -2107825.711  -6564140.049
10 0 59695  38262.000000  0    -454399.788  -1285684.099  -6758807.451
10 0 59695  38382.000000  0    -791687.916   -435177.938  -6835592.105
10 0 59695  38502.000000  0   -1100266.283    428514.853  -6793175.749
10 0 59695  38622.000000  0   -1374695.386   1289889.491  -6632288.629
10 0 59695  38742.000000  0   -1610392.311   2133385.681  -6355698.115
10 0 59695  38862.000000  0   -1803705.881   2943661.599  -5968166.868
10 0 59695  38982.000000  0   -1951973.408   3705869.487  -5476380.435
10 0 59695  39102.000000  0   -2053556.766   4405926.686  -4888842.713
10 0 59695  39222.000000  0   -2107858.314   5030779.192  -4215740.526
10 0 59695  39342.000000  0   -2115315.202   5568651.273  -3468776.186
10 0 59695  39462.000000  0   -2077371.478   6009275.067  -2660971.790
10 0 59695  39582.000000  0   -1996428.755   6344096.983  -1806448.078
10 0 59695  39702.000000  0   -1875776.865   6566454.957   -920178.470
10 0 59695  39822.000000  0   -1719505.034   6671720.237    -17725.135
10 0 59695  39942.000000  0   -1532395.631   6657403.327    885038.874
10 0 59695  40062.000000  0   -1319802.881   6523216.665   1772219.867
10 0 59695  40182.000000  0   -1087518.873   6271088.518   2628193.836
10 0 59695  40302.000000  0    -841631.545   5905133.079   3437888.709
10 0 59695  40422.000000  0    -588378.524   5431578.624   4187055.064
10 0 59695  40542.000000  0    -334000.603   4858654.913   4862522.229
10 0 59695  40662.000000  0     -84596.239   4196437.271   5452431.676
10 0 59695  40782.000000  0     154017.141   3456660.529   5946440.210
10 0 59695  40902.000000  0     376431.697   2652503.164   6335898.522
10 0 59695  41022.000000  0     577766.152   1798345.423   6613996.247
10 0 59695  41142.000000  0     753768.703    909508.041   6775875.269
10 0 59695  41262.000000  0     900903.789      1975.362   6818708.617
10 0 59695  41382.000000  0    1016421.568   -907890.787   6741746.981
10 0 59695  41502.000000  0    1098408.915  -1803645.790   6546332.069
10 0 59695  41622.000000  0    1145821.217  -2669059.041   6235875.081
10 0 59695  41742.000000  0    1158494.419  -3488409.498   5815801.175
10 0 59695  41862.000000  0    1137136.359  -4246773.633   5293458.404
10 0 59695  41982.000000  0    1083299.677  -4930299.801   4677994.768
10 0 59695  42102.000000  0     999335.625  -5526467.631   3980205.120
10 0 59695  42222.000000  0     888329.320  -6024327.614   3212346.049
10 0 59695  42342.000000  0     754017.959  -6414712.300   2387921.136
10 0 59695  42462.000000  0     600692.697  -6690414.514   1521442.026
10 0 59695  42582.000000  0     433087.521  -6846328.931    628169.375
10 0 59695  42702.000000  0     256257.500  -6879554.703   -276163.293
10 0 59695  42822.000000  0      75448.693  -6789451.041  -1175637.664
10 0 59695  42942.000000  0    -104035.029  -6577645.473  -2054440.008
10 0 59695  43062.000000  0    -276965.323  -6247997.725  -2897145.814
10 0 59695  43182.000000  0    -438319.985  -5806520.431  -3688995.522
10 0 59695  43302.000000  0    -583407.718  -5261257.593  -4416155.579
10 0 59695  43422.000000  0    -707983.571  -4622124.325  -5065957.882
10 0 59695  43542.000000  0    -808352.569  -3900714.733  -5627114.164
10 0 59695  43662.000000  0    -881459.261  -3110081.831  -6089903.346
10 0 59695  43782.000000  0    -924961.490  -2264494.601  -6446329.383
10 0 59695  43902.000000  0    -937287.432  -1379177.194  -6690247.816
10 0 59695  44022.000000  0    -917675.236   -470036.079  -6817461.114
10 0 59695  44142.000000  0    -866194.486    446621.897  -6825783.183
10 0 59695  44262.000000  0    -783748.747   1354375.163  -6715071.647
10 0 59695  44382.000000  0    -672060.149   2236973.897  -6487229.963
10 0 59695  44502.000000  0    -533636.074   3078623.636  -6146178.783
10 0 59695  44622.000000  0    -371717.511   3864264.142  -5697797.031
10 0 59695  44742.000000  0    -190209.951   4579838.082  -5149830.194
10 0 59695  44862.000000  0       6401.613   5212544.921  -4511768.167
10 0 59695  44982.000000  0     213152.336   5751077.133  -3794691.818
10 0 59695  45102.000000  0     424710.488   6185832.047  -3011089.184
10 0 59695  45222.000000  0     635501.358   6509094.750  -2174644.409
10 0 59695  45342.000000  0     839839.582   6715188.153  -1300001.519
10 0 59695  45462.000000  0    1032066.800   6800584.827   -402506.512
10 0 59695  45582.000000  0    1206691.342   6763977.129    502066.943
10 0 59695  45702.000000  0    1358526.082   6606302.113   1397802.344
10 0 59695  45822.000000  0    1482819.955   6330721.716   2268928.182
10 0 59695  45942.000000  0    1575380.723   5942559.408   3100103.638
10 0 59695  46062.000000  0    1632686.271   5449194.060   3876696.378
10 0 59695  46182.000000  0    1651980.763   4859912.080   4585046.222
10 0 59695  46302.000000  0    1631354.450   4185722.905   5212709.348
10 0 59695  46422.000000  0    1569802.312   3439141.032   5748675.444
10 0 59695  46542.000000  0    1467263.938   2633946.362   6183555.262
10 0 59695  46662.000000  0    1324642.506   1784923.680   6509740.798
10 0 59695  46782.000000  0    1143802.785    907585.993   6721532.591
10 0 59695  46902.000000  0     927548.196     17888.693   6815232.286
10 0 59695  47022.000000  0     679577.620   -868059.101   6789203.419
10 0 59695  47142.000000  0     404421.966  -1734286.167   6643899.692
10 0 59695  47262.000000  0     107361.302  -2565246.928   6381857.572
10 0 59695  47382.000000  0    -205675.960  -3346101.635   6007654.541
10 0 59695  47502.000000  0    -528228.964  -4062982.392   5527831.329
10 0 59695  47622.000000  0    -853433.905  -4703240.715   4950783.915
10 0 59695  47742.000000  0   -1174166.446  -5255677.250   4286625.746
10 0 59695  47862.000000  0   -1483194.762  -5710748.255   3547015.557
10 0 59695  47982.000000  0   -1773338.278  -6060740.183   2744953.837
10 0 59695  48102.000000  0   -2037629.544  -6299909.234   1894554.093
10 0 59695  48222.000000  0   -2269475.509  -6424583.375   1010790.918
10 0 59695  48342.000000  0   -2462812.340  -6433222.918    109229.592
10 0 59695  48462.000000  0   -2612250.836  -6326438.474   -794256.303
10 0 59695  48582.000000  0   -2713208.789  -6106965.350  -1683773.229
10 0 59695  48702.000000  0   -2762027.261  -5779595.166  -2543695.572
10 0 59695  48822.000000  0   -2756067.592  -5351066.703  -3358947.060
10 0 59695  48942.000000  0   -2693786.269  -4829918.316  -4115269.114
10 0 59695  49062.000000  0   -2574786.230  -4226307.307  -4799469.370
10 0 59695  49182.000000  0   -2399844.431  -3551802.481  -5399646.866
10 0 59695  49302.000000  0   -2170915.877  -2819154.840  -5905391.367
10 0 59695  49422.000000  0   -1891113.822  -2042051.035  -6307954.591
10 0 59695  49542.000000  0   -1564666.027  -1234854.614  -6600390.496
99
